0 COSMOS 1197
1 11880U 80058F   13283.05255417  .00000025  00000-0  28233-3 0  4280
2 11880 074.0152 118.2536 0012825 129.0939 349.9804 12.45947823512725
0 COSMOS 1197
1 11880U 80058F   13285.51811690  .00000014  00000-0  20548-3 0  4294
2 11880 074.0150 114.9991 0012790 125.2189 249.2467 12.45948226513037
0 COSMOS 1197
1 11880U 80058F   13287.52847014 -.00000024  00000-0 -57452-4 0  4306
2 11880 074.0150 112.3452 0012776 122.1009 266.6336 12.45948499513289
0 COSMOS 1197
1 11880U 80058F   13289.79922058 -.00000033  00000-0 -12113-3 0  4314
2 11880 074.0154 109.3478 0012753 118.6661 011.9416 12.45948582513560
0 COSMOS 1197
1 11880U 80058F   13292.20423766 -.00000017  00000-0 -11861-4 0  4329
2 11880 074.0159 106.1731 0012754 114.8329 359.6907 12.45948417513869
0 COSMOS 1197
1 11880U 80058F   13294.21072002 -.00000002  00000-0  93482-4 0  4338
2 11880 074.0161 103.5247 0012743 111.7037 359.7350 12.45948148514118
0 COSMOS 1197
1 11880U 80058F   13296.21760546  .00000007  00000-0  15600-3 0  4347
2 11880 074.0162 100.8756 0012713 108.5898 001.5696 12.45948086514363
